{
  "norad_id": 66121,
  "name": "STARLINK-35631",
  "history": [
    {
      "epoch": "2026-03-28T20:46:49.808064Z",
      "apogee_km": 475.6232537848018,
      "perigee_km": 474.74328746205447,
      "latitude_deg": -3.9891366571613106e-05,
      "longitude_deg": 172.7655758652493,
      "height_km": 476.2916882444412,
      "semi_major_axis_km": 6853.320270623428,
      "eccentricity": 6.42e-05,
      "inclination_deg": 53.1607,
      "raan_deg": 310.7533,
      "arg_perigee_deg": 118.4092,
      "mean_anomaly_deg": 241.6973,
      "mean_motion_rev_day": 15.3021065
    }
  ]
}